STARLINK-31021          
1 58518U 23191L   26068.44888954  .00000649  00000+0  33885-4 0  9994
2 58518  43.0000 104.8427 0001407 267.8000  92.2690 15.26741054125435
FLOCK 4G-6              
1 62660U 25009BD  26068.71061311  .00012261  00000+0  45910-3 0  9991
2 62660  97.3980 150.7943 0002380 348.2637  11.8546 15.27432125121307
