[{"OBJECT_NAME":"STARLINK-31021","OBJECT_ID":"2023-191L","EPOCH":"2026-03-09T10:46:24.056256","MEAN_MOTION":15.26741054,"ECCENTRICITY":0.00014076,"INCLINATION":43,"RA_OF_ASC_NODE":104.8427,"ARG_OF_PERICENTER":267.8,"MEAN_ANOMALY":92.269,"EPHEMERIS_TYPE":0,"CLASSIFICATION_TYPE":"U","NORAD_CAT_ID":58518,"ELEMENT_SET_NO":999,"REV_AT_EPOCH":12543,"BSTAR":3.3885289e-5,"MEAN_MOTION_DOT":6.49e-6,"MEAN_MOTION_DDOT":0},{"OBJECT_NAME":"FLOCK 4G-6","OBJECT_ID":"2025-009BD","EPOCH":"2026-03-09T17:03:16.973568","MEAN_MOTION":15.27432125,"ECCENTRICITY":0.00023795,"INCLINATION":97.398,"RA_OF_ASC_NODE":150.7943,"ARG_OF_PERICENTER":348.2637,"MEAN_ANOMALY":11.8546,"EPHEMERIS_TYPE":0,"CLASSIFICATION_TYPE":"U","NORAD_CAT_ID":62660,"ELEMENT_SET_NO":999,"REV_AT_EPOCH":12130,"BSTAR":0.00045909501,"MEAN_MOTION_DOT":0.00012261,"MEAN_MOTION_DDOT":0}]
